CCSDS_OMM_VERS = 2.0
CREATION_DATE  = 
ORIGINATOR     = 

OBJECT_NAME    = STARLINK-36381
OBJECT_ID      = 2026-037W
CENTER_NAME    = EARTH
REF_FRAME      = TEME
TIME_SYSTEM    = UTC
MEAN_ELEMENT_THEORY = SGP/SGP4

EPOCH          = 2026-03-08T14:00:01.999872
MEAN_MOTION    = 15.85213823
ECCENTRICITY   = .00012725
INCLINATION    = 42.9992
RA_OF_ASC_NODE = 205.1465
ARG_OF_PERICENTER = 282.0587
MEAN_ANOMALY   = 245.5257

EPHEMERIS_TYPE = 0
CLASSIFICATION_TYPE = U
NORAD_CAT_ID   = 67952
ELEMENT_SET_NO = 999
REV_AT_EPOCH   = 302
BSTAR          = -.76154428E-2
MEAN_MOTION_DOT = -.1630968E-1
MEAN_MOTION_DDOT = 0

CCSDS_OMM_VERS = 2.0
CREATION_DATE  = 
ORIGINATOR     = 

OBJECT_NAME    = STARLINK-36824
OBJECT_ID      = 2026-037X
CENTER_NAME    = EARTH
REF_FRAME      = TEME
TIME_SYSTEM    = UTC
MEAN_ELEMENT_THEORY = SGP/SGP4

EPOCH          = 2026-03-08T14:00:01.999872
MEAN_MOTION    = 15.85067317
ECCENTRICITY   = .0001347
INCLINATION    = 42.9991
RA_OF_ASC_NODE = 205.1561
ARG_OF_PERICENTER = 280.9817
MEAN_ANOMALY   = 242.7746

EPHEMERIS_TYPE = 0
CLASSIFICATION_TYPE = U
NORAD_CAT_ID   = 67953
ELEMENT_SET_NO = 999
REV_AT_EPOCH   = 302
BSTAR          = -.76245091E-2
MEAN_MOTION_DOT = -.1622557E-1
MEAN_MOTION_DDOT = 0

CCSDS_OMM_VERS = 2.0
CREATION_DATE  = 
ORIGINATOR     = 

OBJECT_NAME    = STARLINK-36869
OBJECT_ID      = 2026-037Y
CENTER_NAME    = EARTH
REF_FRAME      = TEME
TIME_SYSTEM    = UTC
MEAN_ELEMENT_THEORY = SGP/SGP4

EPOCH          = 2026-03-08T14:00:01.999872
MEAN_MOTION    = 15.85382555
ECCENTRICITY   = .00011455
INCLINATION    = 42.9990
RA_OF_ASC_NODE = 205.1367
ARG_OF_PERICENTER = 273.5895
MEAN_ANOMALY   = 257.6630

EPHEMERIS_TYPE = 0
CLASSIFICATION_TYPE = U
NORAD_CAT_ID   = 67954
ELEMENT_SET_NO = 999
REV_AT_EPOCH   = 302
BSTAR          = -.74605856E-2
MEAN_MOTION_DOT = -.1613524E-1
MEAN_MOTION_DDOT = 0

CCSDS_OMM_VERS = 2.0
CREATION_DATE  = 
ORIGINATOR     = 

OBJECT_NAME    = STARLINK-36872
OBJECT_ID      = 2026-037Z
CENTER_NAME    = EARTH
REF_FRAME      = TEME
TIME_SYSTEM    = UTC
MEAN_ELEMENT_THEORY = SGP/SGP4

EPOCH          = 2026-03-08T14:00:01.999872
MEAN_MOTION    = 15.85594555
ECCENTRICITY   = .00013836
INCLINATION    = 42.9990
RA_OF_ASC_NODE = 205.1166
ARG_OF_PERICENTER = 272.7177
MEAN_ANOMALY   = 266.4074

EPHEMERIS_TYPE = 0
CLASSIFICATION_TYPE = U
NORAD_CAT_ID   = 67955
ELEMENT_SET_NO = 999
REV_AT_EPOCH   = 302
BSTAR          = -.75151595E-2
MEAN_MOTION_DOT = -.1638805E-1
MEAN_MOTION_DDOT = 0

CCSDS_OMM_VERS = 2.0
CREATION_DATE  = 
ORIGINATOR     = 

OBJECT_NAME    = STARLINK-36918
OBJECT_ID      = 2026-037AA
CENTER_NAME    = EARTH
REF_FRAME      = TEME
TIME_SYSTEM    = UTC
MEAN_ELEMENT_THEORY = SGP/SGP4

EPOCH          = 2026-03-08T14:00:01.999872
MEAN_MOTION    = 15.85679633
ECCENTRICITY   = .00013591
INCLINATION    = 42.9992
RA_OF_ASC_NODE = 205.1067
ARG_OF_PERICENTER = 268.6083
MEAN_ANOMALY   = 274.5191

EPHEMERIS_TYPE = 0
CLASSIFICATION_TYPE = U
NORAD_CAT_ID   = 67956
ELEMENT_SET_NO = 999
REV_AT_EPOCH   = 302
BSTAR          = -.75423875E-2
MEAN_MOTION_DOT = -.1649939E-1
MEAN_MOTION_DDOT = 0

CCSDS_OMM_VERS = 2.0
CREATION_DATE  = 
ORIGINATOR     = 

OBJECT_NAME    = STARLINK-36829
OBJECT_ID      = 2026-037AB
CENTER_NAME    = EARTH
REF_FRAME      = TEME
TIME_SYSTEM    = UTC
MEAN_ELEMENT_THEORY = SGP/SGP4

EPOCH          = 2026-03-08T14:00:01.999872
MEAN_MOTION    = 15.85503487
ECCENTRICITY   = .00012064
INCLINATION    = 42.9989
RA_OF_ASC_NODE = 205.1272
ARG_OF_PERICENTER = 280.8518
MEAN_ANOMALY   = 254.2557

EPHEMERIS_TYPE = 0
CLASSIFICATION_TYPE = U
NORAD_CAT_ID   = 67957
ELEMENT_SET_NO = 999
REV_AT_EPOCH   = 302
BSTAR          = -.74371916E-2
MEAN_MOTION_DOT = -.1617518E-1
MEAN_MOTION_DDOT = 0

CCSDS_OMM_VERS = 2.0
CREATION_DATE  = 
ORIGINATOR     = 

OBJECT_NAME    = STARLINK-36799
OBJECT_ID      = 2026-037AC
CENTER_NAME    = EARTH
REF_FRAME      = TEME
TIME_SYSTEM    = UTC
MEAN_ELEMENT_THEORY = SGP/SGP4

EPOCH          = 2026-03-08T14:00:01.999872
MEAN_MOTION    = 15.85808964
ECCENTRICITY   = .00012587
INCLINATION    = 42.9988
RA_OF_ASC_NODE = 205.0974
ARG_OF_PERICENTER = 275.1825
MEAN_ANOMALY   = 271.7700

EPHEMERIS_TYPE = 0
CLASSIFICATION_TYPE = U
NORAD_CAT_ID   = 67958
ELEMENT_SET_NO = 999
REV_AT_EPOCH   = 302
BSTAR          = -.75618107E-2
MEAN_MOTION_DOT = -.1662712E-1
MEAN_MOTION_DDOT = 0

CCSDS_OMM_VERS = 2.0
CREATION_DATE  = 
ORIGINATOR     = 

OBJECT_NAME    = STARLINK-36834
OBJECT_ID      = 2026-037AD
CENTER_NAME    = EARTH
REF_FRAME      = TEME
TIME_SYSTEM    = UTC
MEAN_ELEMENT_THEORY = SGP/SGP4

EPOCH          = 2026-03-08T14:00:01.999872
MEAN_MOTION    = 15.85965313
ECCENTRICITY   = .00013102
INCLINATION    = 42.9989
RA_OF_ASC_NODE = 205.0769
ARG_OF_PERICENTER = 273.2814
MEAN_ANOMALY   = 281.6488

EPHEMERIS_TYPE = 0
CLASSIFICATION_TYPE = U
NORAD_CAT_ID   = 67959
ELEMENT_SET_NO = 999
REV_AT_EPOCH   = 302
BSTAR          = -.75423189E-2
MEAN_MOTION_DOT = -.1670185E-1
MEAN_MOTION_DDOT = 0

CCSDS_OMM_VERS = 2.0
CREATION_DATE  = 
ORIGINATOR     = 

OBJECT_NAME    = STARLINK-36841
OBJECT_ID      = 2026-037AE
CENTER_NAME    = EARTH
REF_FRAME      = TEME
TIME_SYSTEM    = UTC
MEAN_ELEMENT_THEORY = SGP/SGP4

EPOCH          = 2026-03-08T14:00:01.999872
MEAN_MOTION    = 15.85902616
ECCENTRICITY   = .00012014
INCLINATION    = 42.9988
RA_OF_ASC_NODE = 205.0870
ARG_OF_PERICENTER = 274.4234
MEAN_ANOMALY   = 276.4480

EPHEMERIS_TYPE = 0
CLASSIFICATION_TYPE = U
NORAD_CAT_ID   = 67960
ELEMENT_SET_NO = 999
REV_AT_EPOCH   = 302
BSTAR          = -.7531101E-2
MEAN_MOTION_DOT = -.1663458E-1
MEAN_MOTION_DDOT = 0

CCSDS_OMM_VERS = 2.0
CREATION_DATE  = 
ORIGINATOR     = 

OBJECT_NAME    = STARLINK-36912
OBJECT_ID      = 2026-038A
CENTER_NAME    = EARTH
REF_FRAME      = TEME
TIME_SYSTEM    = UTC
MEAN_ELEMENT_THEORY = SGP/SGP4

EPOCH          = 2026-03-08T14:00:01.999872
MEAN_MOTION    = 15.91254477
ECCENTRICITY   = .00015304
INCLINATION    = 97.2747
RA_OF_ASC_NODE = 77.7779
ARG_OF_PERICENTER = 100.8882
MEAN_ANOMALY   = 85.9671

EPHEMERIS_TYPE = 0
CLASSIFICATION_TYPE = U
NORAD_CAT_ID   = 67961
ELEMENT_SET_NO = 999
REV_AT_EPOCH   = 302
BSTAR          = -.55810625E-2
MEAN_MOTION_DOT = -.175416E-1
MEAN_MOTION_DDOT = .84656114E-3

CCSDS_OMM_VERS = 2.0
CREATION_DATE  = 
ORIGINATOR     = 

OBJECT_NAME    = STARLINK-36881
OBJECT_ID      = 2026-038B
CENTER_NAME    = EARTH
REF_FRAME      = TEME
TIME_SYSTEM    = UTC
MEAN_ELEMENT_THEORY = SGP/SGP4

EPOCH          = 2026-03-08T14:00:01.999872
MEAN_MOTION    = 15.91349199
ECCENTRICITY   = .00015313
INCLINATION    = 97.2746
RA_OF_ASC_NODE = 77.7789
ARG_OF_PERICENTER = 100.1860
MEAN_ANOMALY   = 89.3999

EPHEMERIS_TYPE = 0
CLASSIFICATION_TYPE = U
NORAD_CAT_ID   = 67962
ELEMENT_SET_NO = 999
REV_AT_EPOCH   = 302
BSTAR          = -.55733685E-2
MEAN_MOTION_DOT = -.176014E-1
MEAN_MOTION_DDOT = .85274969E-3

CCSDS_OMM_VERS = 2.0
CREATION_DATE  = 
ORIGINATOR     = 

OBJECT_NAME    = STARLINK-36357
OBJECT_ID      = 2026-038C
CENTER_NAME    = EARTH
REF_FRAME      = TEME
TIME_SYSTEM    = UTC
MEAN_ELEMENT_THEORY = SGP/SGP4

EPOCH          = 2026-03-08T14:00:01.999872
MEAN_MOTION    = 15.91608532
ECCENTRICITY   = .0001504
INCLINATION    = 97.2741
RA_OF_ASC_NODE = 77.7822
ARG_OF_PERICENTER = 101.3651
MEAN_ANOMALY   = 95.7182

EPHEMERIS_TYPE = 0
CLASSIFICATION_TYPE = U
NORAD_CAT_ID   = 67963
ELEMENT_SET_NO = 999
REV_AT_EPOCH   = 302
BSTAR          = -.5463187E-2
MEAN_MOTION_DOT = -.1748452E-1
MEAN_MOTION_DDOT = .84443438E-3

CCSDS_OMM_VERS = 2.0
CREATION_DATE  = 
ORIGINATOR     = 

OBJECT_NAME    = STARLINK-36349
OBJECT_ID      = 2026-038D
CENTER_NAME    = EARTH
REF_FRAME      = TEME
TIME_SYSTEM    = UTC
MEAN_ELEMENT_THEORY = SGP/SGP4

EPOCH          = 2026-03-08T14:00:01.999872
MEAN_MOTION    = 15.91479960
ECCENTRICITY   = .00015768
INCLINATION    = 97.2739
RA_OF_ASC_NODE = 77.7801
ARG_OF_PERICENTER = 99.2954
MEAN_ANOMALY   = 94.0345

EPHEMERIS_TYPE = 0
CLASSIFICATION_TYPE = U
NORAD_CAT_ID   = 67964
ELEMENT_SET_NO = 999
REV_AT_EPOCH   = 302
BSTAR          = -.55124758E-2
MEAN_MOTION_DOT = -.1752652E-1
MEAN_MOTION_DDOT = .84711957E-3

CCSDS_OMM_VERS = 2.0
CREATION_DATE  = 
ORIGINATOR     = 

OBJECT_NAME    = STARLINK-36806
OBJECT_ID      = 2026-038E
CENTER_NAME    = EARTH
REF_FRAME      = TEME
TIME_SYSTEM    = UTC
MEAN_ELEMENT_THEORY = SGP/SGP4

EPOCH          = 2026-03-08T14:00:01.999872
MEAN_MOTION    = 15.91759077
ECCENTRICITY   = .0001489
INCLINATION    = 97.2733
RA_OF_ASC_NODE = 77.7837
ARG_OF_PERICENTER = 102.1293
MEAN_ANOMALY   = 99.3135

EPHEMERIS_TYPE = 0
CLASSIFICATION_TYPE = U
NORAD_CAT_ID   = 67965
ELEMENT_SET_NO = 999
REV_AT_EPOCH   = 302
BSTAR          = -.5395338E-2
MEAN_MOTION_DOT = -.1740175E-1
MEAN_MOTION_DDOT = .83827772E-3

CCSDS_OMM_VERS = 2.0
CREATION_DATE  = 
ORIGINATOR     = 

OBJECT_NAME    = STARLINK-36820
OBJECT_ID      = 2026-038F
CENTER_NAME    = EARTH
REF_FRAME      = TEME
TIME_SYSTEM    = UTC
MEAN_ELEMENT_THEORY = SGP/SGP4

EPOCH          = 2026-03-08T14:00:01.999872
MEAN_MOTION    = 15.91893867
ECCENTRICITY   = .00015582
INCLINATION    = 97.2733
RA_OF_ASC_NODE = 77.7855
ARG_OF_PERICENTER = 103.2072
MEAN_ANOMALY   = 101.8739

EPHEMERIS_TYPE = 0
CLASSIFICATION_TYPE = U
NORAD_CAT_ID   = 67966
ELEMENT_SET_NO = 999
REV_AT_EPOCH   = 302
BSTAR          = -.53763097E-2
MEAN_MOTION_DOT = -.1745998E-1
MEAN_MOTION_DDOT = .84465324E-3

